NORAD_CAT_ID,OBJECT_NAME,OBJECT_TYPE,EPOCH,MEAN_MOTION,ECCENTRICITY,INCLINATION,RA_OF_ASC_NODE,ARG_OF_PERICENTER,MEAN_ANOMALY,BSTAR,MEAN_MOTION_DOT,MEAN_MOTION_DDOT,TLE_LINE0,TLE_LINE1,TLE_LINE2,SEMIMAJOR_AXIS,PERIOD,APOGEE,PERIGEE,DECAYED
53152.0,STARLINK-4045,PAYLOAD,2024-05-12 02:26:32,15.08721998,0.0002065,53.2161,276.5488,90.8343,269.2886,-0.0034084,-0.00053954,0.0,0 STARLINK-4045,1 53152U 22083W   24133.10176944 -.00053954  00000-0 -34084-2 0  9995,2 53152  53.2161 276.5488 0002065  90.8343 269.2886 15.08721998101357,6918.241,95.445,541.535,538.677,0.0
53152.0,STARLINK-4045,PAYLOAD,2024-05-12 13:34:19,15.0863925,0.0001616,53.2177,274.4706,113.5763,246.5399,-0.0030489,-0.00048222,0.0,0 STARLINK-4045,1 53152U 22083W   24133.56550486 -.00048222  00000-0 -30489-2 0  9999,2 53152  53.2177 274.4706 0001616 113.5763 246.5399 15.08639250101428,6918.494,95.45,541.477,539.241,0.0
53152.0,STARLINK-4045,PAYLOAD,2024-05-12 16:45:08,15.08596905,0.000159,53.2171,273.8766,118.8698,241.2454,0.00095533,0.00014848,0.0,0 STARLINK-4045,1 53152U 22083W   24133.69801618  .00014848  00000-0  95533-3 0  9996,2 53152  53.2171 273.8766 0001590 118.8698 241.2454 15.08596905101442,6918.624,95.453,541.589,539.388,0.0
53152.0,STARLINK-4045,PAYLOAD,2024-05-13 02:17:30,15.08693355,0.0001267,53.2165,272.0915,143.111,216.9969,0.0023846,0.00037714,0.0,0 STARLINK-4045,1 53152U 22083W   24134.09548640  .00037714  00000-0  23846-2 0  9998,2 53152  53.2165 272.0915 0001267 143.1110 216.9969 15.08693355101507,6918.329,95.447,541.07,539.317,0.0
53152.0,STARLINK-4045,PAYLOAD,2024-05-14 14:51:16,15.08920258,0.0003141,53.2162,265.2453,258.242,101.822,0.0014117,0.00022301,0.0,0 STARLINK-4045,1 53152U 22083W   24135.61894593  .00022301  00000-0  14117-2 0  9995,2 53152  53.2162 265.2453 0003141 258.2420 101.8220 15.08920258101732,6917.635,95.432,541.673,537.327,0.0
53152.0,STARLINK-4045,PAYLOAD,2024-05-15 14:41:58,15.0894613,0.000143,53.2153,260.7914,87.8181,272.2975,0.0011141,0.00017539,0.0,0 STARLINK-4045,1 53152U 22083W   24136.61248642  .00017539  00000-0  11141-2 0  9995,2 53152  53.2153 260.7914 0001430  87.8181 272.2975 15.08946130101257,6917.556,95.431,540.41,538.432,0.0
53152.0,STARLINK-4045,PAYLOAD,2024-05-15 17:52:44,15.08954665,0.0001715,53.215,260.1952,89.6973,270.4216,0.0011992,0.00018909,0.0,0 STARLINK-4045,1 53152U 22083W   24136.74495610  .00018909  00000-0  11992-2 0  9994,2 53152  53.2150 260.1952 0001715  89.6973 270.4216 15.08954665101907,6917.53,95.43,540.581,538.209,0.0
53152.0,STARLINK-4045,PAYLOAD,2024-05-16 01:49:39,15.08911391,0.0002686,53.2173,258.7028,108.869,251.2593,-0.00022784,-3.92e-05,0.0,0 STARLINK-4045,1 53152U 22083W   24137.07614935 -.00003920  00000-0 -22784-3 0  9995,2 53152  53.2173 258.7028 0002686 108.8690 251.2593 15.08911391101956,6917.662,95.433,541.385,537.669,0.0
53152.0,STARLINK-4045,PAYLOAD,2024-05-16 11:21:56,15.08898532,0.0001997,53.2154,256.9204,115.3738,244.7461,-0.00018011,-3.158e-05,0.0,0 STARLINK-4045,1 53152U 22083W   24137.47357475 -.00003158  00000-0 -18011-3 0  9993,2 53152  53.2154 256.9204 0001997 115.3738 244.7461 15.08898532102011,6917.701,95.434,540.948,538.185,0.0
53152.0,STARLINK-4045,PAYLOAD,2024-05-17 11:12:43,15.08858768,0.0001398,53.2166,252.4614,104.7639,255.3508,0.0009021,0.00014105,0.0,0 STARLINK-4045,1 53152U 22083W   24138.46717514  .00014105  00000-0  90210-3 0  9990,2 53152  53.2166 252.4614 0001398 104.7639 255.3508 15.08858768102160,6917.823,95.436,540.655,538.721,0.0
53152.0,STARLINK-4045,PAYLOAD,2024-05-17 14:23:30,15.08848281,0.0001092,53.2163,251.8676,68.1175,291.9933,0.00031044,4.657e-05,0.0,0 STARLINK-4045,1 53152U 22083W   24138.59965431  .00004657  00000-0  31044-3 0  9998,2 53152  53.2163 251.8676 0001092  68.1175 291.9933 15.08848281101556,6917.855,95.437,540.476,538.965,0.0
53152.0,STARLINK-4045,PAYLOAD,2024-05-17 23:55:49,15.0883988,0.0001058,53.2162,250.0817,57.6115,302.4979,0.00036649,5.55e-05,0.0,0 STARLINK-4045,1 53152U 22083W   24138.99709987  .00005550  00000-0  36649-3 0  9993,2 53152  53.2162 250.0817 0001058  57.6115 302.4979 15.08839880102242,6917.881,95.438,540.478,539.014,0.0
53152.0,STARLINK-4045,PAYLOAD,2024-05-18 14:14:18,15.08845541,0.0001055,53.2155,247.4077,85.1505,274.9607,0.0018262,0.000289,0.0,0 STARLINK-4045,1 53152U 22083W   24139.59326479  .00028900  00000-0  18262-2 0  9995,2 53152  53.2155 247.4077 0001055  85.1505 274.9607 15.08845541101700,6917.863,95.437,540.458,538.999,0.0
53152.0,STARLINK-4045,PAYLOAD,2024-05-18 23:46:37,15.08838211,0.0001072,53.2159,245.6215,78.3273,281.7839,0.00057609,8.892e-05,0.0,0 STARLINK-4045,1 53152U 22083W   24139.99070939  .00008892  00000-0  57609-3 0  9993,2 53152  53.2159 245.6215 0001072  78.3273 281.7839 15.08838211102398,6917.886,95.438,540.492,539.009,0.0
53152.0,STARLINK-4045,PAYLOAD,2024-05-19 14:05:06,15.08820591,0.0001373,53.2179,242.9488,121.4971,238.6155,0.00022837,3.347e-05,0.0,0 STARLINK-4045,1 53152U 22083W   24140.58688148  .00003347  00000-0  22837-3 0  9992,2 53152  53.2179 242.9488 0001373 121.4971 238.6155 15.08820591101855,6917.94,95.439,540.755,538.855,0.0
53152.0,STARLINK-4045,PAYLOAD,2024-05-19 15:40:29,15.08819576,0.0001198,53.2179,242.6516,118.6755,241.4357,0.0018388,0.00029081,0.0,0 STARLINK-4045,1 53152U 22083W   24140.65312449  .00029081  00000-0  18388-2 0  9996,2 53152  53.2179 242.6516 0001198 118.6755 241.4357 15.08819576102495,6917.943,95.439,540.637,538.979,0.0
53152.0,STARLINK-4045,PAYLOAD,2024-05-20 13:55:53,15.08881148,0.0001054,53.217,238.4884,113.5593,246.551,0.0020945,0.00033241,0.0,0 STARLINK-4045,1 53152U 22083W   24141.58047718  .00033241  00000-0  20945-2 0  9998,2 53152  53.2170 238.4884 0001054 113.5593 246.5510 15.08881148102000,6917.755,95.435,540.349,538.89,0.0
53152.0,STARLINK-4045,PAYLOAD,2024-05-20 15:31:16,15.08887157,0.0001096,53.2173,238.1901,112.2362,247.8747,0.0021741,0.00034527,0.0,0 STARLINK-4045,1 53152U 22083W   24141.64671498  .00034527  00000-0  21741-2 0  9996,2 53152  53.2173 238.1901 0001096 112.2362 247.8747 15.08887157102648,6917.736,95.435,540.359,538.843,0.0
53152.0,STARLINK-4045,PAYLOAD,2024-05-21 12:11:16,15.08850944,8.85e-05,53.2163,234.3208,133.1644,226.9422,0.0010285,0.00016123,0.0,0 STARLINK-4045,1 53152U 22083W   24142.50783389  .00016123  00000-0  10285-2 0  9998,2 53152  53.2163 234.3208 0000885 133.1644 226.9422 15.08850944102771,6917.847,95.437,540.324,539.1,0.0
53152.0,STARLINK-4045,PAYLOAD,2024-05-21 13:46:40,15.08850502,6.58e-05,53.2161,234.0253,96.0064,264.1003,0.0010864,0.00017049,0.0,0 STARLINK-4045,1 53152U 22083W   24142.57407510  .00017049  00000-0  10864-2 0  9995,2 53152  53.2161 234.0253 0000658  96.0064 264.1003 15.08850502102158,6917.848,95.437,540.168,539.258,0.0
53152.0,STARLINK-4045,PAYLOAD,2024-05-22 05:40:32,15.08835073,9.4e-05,53.2169,231.0554,83.1627,276.9472,0.00076625,0.00011926,0.0,0 STARLINK-4045,1 53152U 22083W   24143.23648267  .00011926  00000-0  76625-3 0  9991,2 53152  53.2169 231.0554 0000940  83.1627 276.9472 15.08835073102880,6917.895,95.438,540.411,539.11,0.0
53152.0,STARLINK-4045,PAYLOAD,2024-05-23 05:31:19,15.08838761,0.0001097,53.2173,226.5959,66.3584,293.7523,0.00039258,5.965e-05,0.0,0 STARLINK-4045,1 53152U 22083W   24144.23008742  .00005965  00000-0  39258-3 0  9997,2 53152  53.2173 226.5959 0001097  66.3584 293.7523 15.08838761103031,6917.884,95.438,540.508,538.99,0.0
53152.0,STARLINK-4045,PAYLOAD,2024-05-23 11:52:52,15.08842794,0.000128,53.2159,225.4048,60.5688,299.5432,0.00033923,5.115e-05,0.0,0 STARLINK-4045,1 53152U 22083W   24144.49504705  .00005115  00000-0  33923-3 0  9995,2 53152  53.2159 225.4048 0001280  60.5688 299.5432 15.08842794102445,6917.872,95.437,540.622,538.851,0.0
53152.0,STARLINK-4045,PAYLOAD,2024-05-24 11:43:38,15.08860248,0.0001189,53.2162,220.944,82.22,277.8927,0.00051604,7.939e-05,0.0,0 STARLINK-4045,1 53152U 22083W   24145.48863770  .00007939  00000-0  51604-3 0  9997,2 53152  53.2162 220.9440 0001189  82.2200 277.8927 15.08860248103223,6917.818,95.436,540.506,538.861,0.0
53152.0,STARLINK-4045,PAYLOAD,2024-05-24 14:54:24,15.08865058,0.000118,53.2153,220.3472,88.7339,271.3788,0.00063908,9.905e-05,0.0,0 STARLINK-4045,1 53152U 22083W   24145.62111554  .00009905  00000-0  63908-3 0  9994,2 53152  53.2153 220.3472 0001180  88.7339 271.3788 15.08865058102617,6917.804,95.436,540.485,538.852,0.0
53152.0,STARLINK-4045,PAYLOAD,2024-05-25 05:12:53,15.08837731,0.0001091,53.2155,217.6729,73.8309,286.2803,-0.00013741,-2.474e-05,0.0,0 STARLINK-4045,1 53152U 22083W   24146.21728134 -.00002474  00000-0 -13741-3 0  9994,2 53152  53.2155 217.6729 0001091  73.8309 286.2803 15.08837731103336,6917.887,95.438,540.507,538.998,0.0
53152.0,STARLINK-4045,PAYLOAD,2024-05-25 11:34:25,15.08835485,9.89e-05,53.2154,216.4816,96.3975,263.713,-0.00012541,-2.283e-05,0.0,0 STARLINK-4045,1 53152U 22083W   24146.48224287 -.00002283  00000-0 -12541-3 0  9998,2 53152  53.2154 216.4816 0000989  96.3975 263.7130 15.08835485102744,6917.894,95.438,540.443,539.075,0.0
53152.0,STARLINK-4045,PAYLOAD,2024-05-26 11:25:12,15.08844995,0.0001037,53.2155,212.0225,100.2654,259.8455,0.00025858,3.83e-05,0.0,0 STARLINK-4045,1 53152U 22083W   24147.47584197  .00003830  00000-0  25858-3 0  9999,2 53152  53.2155 212.0225 0001037 100.2654 259.8455 15.08844995103524,6917.865,95.437,540.448,539.013,0.0
53152.0,STARLINK-4045,PAYLOAD,2024-05-26 20:57:31,15.08838125,0.0002005,53.2158,210.2488,139.2759,220.8384,0.0002133,3.108e-05,0.0,0 STARLINK-4045,1 53152U 22083W   24147.87328673  .00003108  00000-0  21330-3 0  9997,2 53152  53.2158 210.2488 0002005 139.2759 220.8384 15.08838125102955,6917.886,95.438,541.138,538.364,0.0
53152.0,STARLINK-4045,PAYLOAD,2024-05-27 11:16:00,15.08812954,0.0002041,53.2164,207.5729,142.908,217.2053,-0.00035094,-5.865e-05,0.0,0 STARLINK-4045,1 53152U 22083W   24148.46945574 -.00005865  00000-0 -35094-3 0  9994,2 53152  53.2164 207.5729 0002041 142.9080 217.2053 15.08812954103672,6917.963,95.439,541.24,538.416,0.0
